{"type": "FeatureCollection", "features": [ {"type": "Feature", "properties": {"norad_id": 30013, "name": "FENGYUN 1C DEB", "group": "fengyun-1c-debris", "lat": 17.522302219130147, "lon": 17.39362776416137, "alt_km": 844.6985233260884, "timestamp": "2025-12-26T16:33:55.845143+00:00", "meta": {"OBJECT_NAME": "FENGYUN 1C DEB", "OBJECT_ID": "1999-025MN", "EPOCH": "2025-12-26T07:53:13.034112", "MEAN_MOTION": 13.87833979, "ECCENTRICITY": 0.01277986, "INCLINATION": 99.5794, "RA_OF_ASC_NODE": 20.0791, "ARG_OF_PERICENTER": 7.9468, "MEAN_ANOMALY": 3.9663, "EPHEMERIS_TYPE": 0, "CLASSIFICATION_TYPE": "U", "NORAD_CAT_ID": 30013, "ELEMENT_SET_NO": 999, "REV_AT_EPOCH": 95870, "BSTAR": 0.000244408, "MEAN_MOTION_DOT": 2.62e-06, "MEAN_MOTION_DDOT": 0}, "tle": {"line1": "1 30013U 99025MN  25360.32862308  .00000262  00000+0  24441-3 0  9997", "line2": "2 30013  99.5794  20.0791 0127798   7.9468   3.9663 13.87833979958703"}}, "geometry": {"type": "Point", "coordinates": [17.39362776416137, 17.522302219130147]}}, {"type": "Feature", "properties": {"norad_id": 30015, "name": "FENGYUN 1C DEB", "group": "fengyun-1c-debris", "lat": -47.025158207427005, "lon": 174.37102125354897, "alt_km": 817.6277725303762, "timestamp": "2025-12-26T16:33:55.845152+00:00", "meta": {"OBJECT_NAME": "FENGYUN 1C DEB", "OBJECT_ID": "1999-025MQ", "EPOCH": "2025-12-26T05:42:36.070272", "MEAN_MOTION": 14.30836857, "ECCENTRICITY": 0.00386812, "INCLINATION": 99.2286, "RA_OF_ASC_NODE": 3.9408, "ARG_OF_PERICENTER": 86.582, "MEAN_ANOMALY": 332.3395, "EPHEMERIS_TYPE": 0, "CLASSIFICATION_TYPE": "U", "NORAD_CAT_ID": 30015, "ELEMENT_SET_NO": 999, "REV_AT_EPOCH": 98366, "BSTAR": 0.00054817739, "MEAN_MOTION_DOT": 1.401e-05, "MEAN_MOTION_DDOT": 0}, "tle": {"line1": "1 30015U 99025MQ  25360.23791748  .00001401  00000+0  54818-3 0  9995", "line2": "2 30015  99.2286   3.9408 0038681  86.5820 332.3395 14.30836857983661"}}, "geometry": {"type": "Point", "coordinates": [174.37102125354897, -47.025158207427005]}}, {"type": "Feature", "properties": {"norad_id": 30016, "name": "FENGYUN 1C DEB", "group": "fengyun-1c-debris", "lat": -54.1716259958787, "lon": -178.41535934803983, "alt_km": 656.9801546347398, "timestamp": "2025-12-26T16:33:55.845161+00:00", "meta": {"OBJECT_NAME": "FENGYUN 1C DEB", "OBJECT_ID": "1999-025MR", "EPOCH": "2025-12-26T07:27:04.392000", "MEAN_MOTION": 14.78860293, "ECCENTRICITY": 0.00458622, "INCLINATION": 98.9046, "RA_OF_ASC_NODE": 13.7069, "ARG_OF_PERICENTER": 358.6109, "MEAN_ANOMALY": 16.2855, "EPHEMERIS_TYPE": 0, "CLASSIFICATION_TYPE": "U", "NORAD_CAT_ID": 30016, "ELEMENT_SET_NO": 999, "REV_AT_EPOCH": 99654, "BSTAR": 0.0018662616, "MEAN_MOTION_DOT": 0.00013947, "MEAN_MOTION_DDOT": 0}, "tle": {"line1": "1 30016U 99025MR  25360.31046750  .00013947  00000+0  18663-2 0  9996", "line2": "2 30016  98.9046  13.7069 0045862 358.6109  16.2855 14.78860293996549"}}, "geometry": {"type": "Point", "coordinates": [-178.41535934803983, -54.1716259958787]}}, {"type": "Feature", "properties": {"norad_id": 30017, "name": "FENGYUN 1C DEB", "group": "fengyun-1c-debris", "lat": -40.851847054485454, "lon": -141.56411414172695, "alt_km": 690.0082214521972, "timestamp": "2025-12-26T16:33:55.845171+00:00", "meta": {"OBJECT_NAME": "FENGYUN 1C DEB", "OBJECT_ID": "1999-025MS", "EPOCH": "2025-12-26T02:25:40.726848", "MEAN_MOTION": 14.61225193, "ECCENTRICITY": 0.02180608, "INCLINATION": 98.7528, "RA_OF_ASC_NODE": 45.4689, "ARG_OF_PERICENTER": 134.0414, "MEAN_ANOMALY": 227.8979, "EPHEMERIS_TYPE": 0, "CLASSIFICATION_TYPE": "U", "NORAD_CAT_ID": 30017, "ELEMENT_SET_NO": 999, "REV_AT_EPOCH": 639, "BSTAR": 0.00014544699, "MEAN_MOTION_DOT": 9.39e-06, "MEAN_MOTION_DDOT": 0}, "tle": {"line1": "1 30017U 99025MS  25360.10116582  .00000939  00000+0  14545-3 0  9998", "line2": "2 30017  98.7528  45.4689 0218060 134.0414 227.8979 14.61225193  6398"}}, "geometry": {"type": "Point", "coordinates": [-141.56411414172695, -40.851847054485454]}}, {"type": "Feature", "properties": {"norad_id": 30018, "name": "FENGYUN 1C DEB", "group": "fengyun-1c-debris", "lat": 43.52425023193829, "lon": -87.16201379598392, "alt_km": 567.6879531592831, "timestamp": "2025-12-26T16:33:55.845180+00:00", "meta": {"OBJECT_NAME": "FENGYUN 1C DEB", "OBJECT_ID": "1999-025MT", "EPOCH": "2025-12-26T04:40:51.070656", "MEAN_MOTION": 14.73329541, "ECCENTRICITY": 0.01170062, "INCLINATION": 98.7544, "RA_OF_ASC_NODE": 83.8883, "ARG_OF_PERICENTER": 153.3881, "MEAN_ANOMALY": 237.7742, "EPHEMERIS_TYPE": 0, "CLASSIFICATION_TYPE": "U", "NORAD_CAT_ID": 30018, "ELEMENT_SET_NO": 999, "REV_AT_EPOCH": 635, "BSTAR": 0.00080859575, "MEAN_MOTION_DOT": 5.775e-05, "MEAN_MOTION_DDOT": 0}, "tle": {"line1": "1 30018U 99025MT  25360.19503554  .00005775  00000+0  80860-3 0  9993", "line2": "2 30018  98.7544  83.8883 0117006 153.3881 237.7742 14.73329541  6358"}}, "geometry": {"type": "Point", "coordinates": [-87.16201379598392, 43.52425023193829]}}, {"type": "Feature", "properties": {"norad_id": 30020, "name": "FENGYUN 1C DEB", "group": "fengyun-1c-debris", "lat": 22.26794801391112, "lon": 0.49340321327199366, "alt_km": 746.1201206096603, "timestamp": "2025-12-26T16:33:55.845190+00:00", "meta": {"OBJECT_NAME": "FENGYUN 1C DEB", "OBJECT_ID": "1999-025MV", "EPOCH": "2025-12-26T06:15:59.045184", "MEAN_MOTION": 14.04487731, "ECCENTRICITY": 0.01837412, "INCLINATION": 98.8471, "RA_OF_ASC_NODE": 3.7316, "ARG_OF_PERICENTER": 32.7991, "MEAN_ANOMALY": 341.6336, "EPHEMERIS_TYPE": 0, "CLASSIFICATION_TYPE": "U", "NORAD_CAT_ID": 30020, "ELEMENT_SET_NO": 999, "REV_AT_EPOCH": 96848, "BSTAR": 0.0004484961, "MEAN_MOTION_DOT": 7.89e-06, "MEAN_MOTION_DDOT": 0}, "tle": {"line1": "1 30020U 99025MV  25360.26110006  .00000789  00000+0  44850-3 0  9999", "line2": "2 30020  98.8471   3.7316 0183741  32.7991 341.6336 14.04487731968489"}}, "geometry": {"type": "Point", "coordinates": [0.49340321327199366, 22.26794801391112]}}, {"type": "Feature", "properties": {"norad_id": 30021, "name": "FENGYUN 1C DEB", "group": "fengyun-1c-debris", "lat": -25.113262893324077, "lon": 167.67022926108015, "alt_km": 843.6128752823315, "timestamp": "2025-12-26T16:33:55.845199+00:00", "meta": {"OBJECT_NAME": "FENGYUN 1C DEB", "OBJECT_ID": "1999-025MW", "EPOCH": "2025-12-26T05:23:40.820064", "MEAN_MOTION": 14.04895368, "ECCENTRICITY": 0.00718821, "INCLINATION": 98.8363, "RA_OF_ASC_NODE": 351.3982, "ARG_OF_PERICENTER": 248.8444, "MEAN_ANOMALY": 124.2568, "EPHEMERIS_TYPE": 0, "CLASSIFICATION_TYPE": "U", "NORAD_CAT_ID": 30021, "ELEMENT_SET_NO": 999, "REV_AT_EPOCH": 97121, "BSTAR": 9.559777e-06, "MEAN_MOTION_DOT": -2.8e-07, "MEAN_MOTION_DDOT": 0}, "tle": {"line1": "1 30021U 99025MW  25360.22477801 -.00000028  00000+0  95598-5 0  9999", "line2": "2 30021  98.8363 351.3982 0071882 248.8444 124.2568 14.04895368971212"}}, "geometry": {"type": "Point", "coordinates": [167.67022926108015, -25.113262893324077]}}, {"type": "Feature", "properties": {"norad_id": 30022, "name": "FENGYUN 1C DEB", "group": "fengyun-1c-debris", "lat": -54.83834079879262, "lon": -137.66325915029782, "alt_km": 809.4521559915502, "timestamp": "2025-12-26T16:33:55.845208+00:00", "meta": {"OBJECT_NAME": "FENGYUN 1C DEB", "OBJECT_ID": "1999-025MX", "EPOCH": "2025-12-26T03:56:03.101856", "MEAN_MOTION": 14.23137105, "ECCENTRICITY": 0.00667482, "INCLINATION": 99.0714, "RA_OF_ASC_NODE": 208.6858, "ARG_OF_PERICENTER": 230.1571, "MEAN_ANOMALY": 258.3841, "EPHEMERIS_TYPE": 0, "CLASSIFICATION_TYPE": "U", "NORAD_CAT_ID": 30022, "ELEMENT_SET_NO": 999, "REV_AT_EPOCH": 98383, "BSTAR": 6.813057e-05, "MEAN_MOTION_DOT": 1.1e-06, "MEAN_MOTION_DDOT": 0}, "tle": {"line1": "1 30022U 99025MX  25360.16392479  .00000110  00000+0  68131-4 0  9993", "line2": "2 30022  99.0714 208.6858 0066748 230.1571 258.3841 14.23137105983835"}}, "geometry": {"type": "Point", "coordinates": [-137.66325915029782, -54.83834079879262]}}, {"type": "Feature", "properties": {"norad_id": 30023, "name": "FENGYUN 1C DEB", "group": "fengyun-1c-debris", "lat": 28.374881033506558, "lon": -170.3202592441772, "alt_km": 817.7021647659012, "timestamp": "2025-12-26T16:33:55.845218+00:00", "meta": {"OBJECT_NAME": "FENGYUN 1C DEB", "OBJECT_ID": "1999-025MY", "EPOCH": "2025-12-26T03:24:41.290848", "MEAN_MOTION": 14.1188182, "ECCENTRICITY": 0.00469464, "INCLINATION": 99.2935, "RA_OF_ASC_NODE": 194.1862, "ARG_OF_PERICENTER": 26.5449, "MEAN_ANOMALY": 98.0409, "EPHEMERIS_TYPE": 0, "CLASSIFICATION_TYPE": "U", "NORAD_CAT_ID": 30023, "ELEMENT_SET_NO": 999, "REV_AT_EPOCH": 97385, "BSTAR": 0.00038845147, "MEAN_MOTION_DOT": 6.69e-06, "MEAN_MOTION_DDOT": 0}, "tle": {"line1": "1 30023U 99025MY  25360.14214457  .00000669  00000+0  38845-3 0  9998", "line2": "2 30023  99.2935 194.1862 0046946  26.5449  98.0409 14.11881820973853"}}, "geometry": {"type": "Point", "coordinates": [-170.3202592441772, 28.374881033506558]}}, {"type": "Feature", "properties": {"norad_id": 30028, "name": "FENGYUN 1C DEB", "group": "fengyun-1c-debris", "lat": -25.52652886032038, "lon": -3.4982883664568893, "alt_km": 819.322060035408, "timestamp": "2025-12-26T16:33:55.845227+00:00", "meta": {"OBJECT_NAME": "FENGYUN 1C DEB", "OBJECT_ID": "1999-025ND", "EPOCH": "2025-12-25T13:13:15.013344", "MEAN_MOTION": 14.5553047, "ECCENTRICITY": 0.0174818, "INCLINATION": 98.1466, "RA_OF_ASC_NODE": 351.4672, "ARG_OF_PERICENTER": 188.4468, "MEAN_ANOMALY": 298.2034, "EPHEMERIS_TYPE": 0, "CLASSIFICATION_TYPE": "U", "NORAD_CAT_ID": 30028, "ELEMENT_SET_NO": 999, "REV_AT_EPOCH": 99908, "BSTAR": 0.00028587, "MEAN_MOTION_DOT": 1.476e-05, "MEAN_MOTION_DDOT": 0}, "tle": {"line1": "1 30028U 99025ND  25359.55086821  .00001476  00000+0  28587-3 0  9997", "line2": "2 30028  98.1466 351.4672 0174818 188.4468 298.2034 14.55530470999082"}}, "geometry": {"type": "Point", "coordinates": [-3.4982883664568893, -25.52652886032038]}}]}